[{"OBJECT_NAME":"STARLINK-31704","OBJECT_ID":"2024-076Y","EPOCH":"2026-03-09T22:00:01.999584","MEAN_MOTION":15.30892355,"ECCENTRICITY":0.00079744,"INCLINATION":42.9978,"RA_OF_ASC_NODE":323.2923,"ARG_OF_PERICENTER":240.5046,"MEAN_ANOMALY":200.4144,"EPHEMERIS_TYPE":0,"CLASSIFICATION_TYPE":"U","NORAD_CAT_ID":59586,"ELEMENT_SET_NO":999,"REV_AT_EPOCH":581,"BSTAR":0.0024766131,"MEAN_MOTION_DOT":0.00076042,"MEAN_MOTION_DDOT":0},{"OBJECT_NAME":"STARLINK-32840","OBJECT_ID":"2025-063A","EPOCH":"2026-03-09T07:45:01.816416","MEAN_MOTION":15.3022266,"ECCENTRICITY":9.722e-5,"INCLINATION":53.1597,"RA_OF_ASC_NODE":51.3178,"ARG_OF_PERICENTER":110.3266,"MEAN_ANOMALY":249.7839,"EPHEMERIS_TYPE":0,"CLASSIFICATION_TYPE":"U","NORAD_CAT_ID":63363,"ELEMENT_SET_NO":999,"REV_AT_EPOCH":5472,"BSTAR":0.0011441373,"MEAN_MOTION_DOT":0.00033704,"MEAN_MOTION_DDOT":0}]
